{
    "links": {
        "self": "http://www.neowsapp.com/rest/v1/neo/3521854?api_key=iIulBulltgU6a56xZRHN4H3l9WmuAYTsLGpBGhQ2"
    },
    "id": "3521854",
    "neo_reference_id": "3521854",
    "name": "(2010 JH80)",
    "designation": "2010 JH80",
    "nasa_jpl_url": "http://ssd.jpl.nasa.gov/sbdb.cgi?sstr=3521854",
    "absolute_magnitude_h": 24.6,
    "estimated_diameter": {
        "kilometers": {
            "estimated_diameter_min": 0.0319561887,
            "estimated_diameter_max": 0.0714562102
        },
        "meters": {
            "estimated_diameter_min": 31.9561886721,
            "estimated_diameter_max": 71.4562101727
        },
        "miles": {
            "estimated_diameter_min": 0.0198566489,
            "estimated_diameter_max": 0.0444008168
        },
        "feet": {
            "estimated_diameter_min": 104.8431420431,
            "estimated_diameter_max": 234.436392583
        }
    },
    "is_potentially_hazardous_asteroid": false,
    "close_approach_data": [
        {
            "close_approach_date": "2010-05-06",
            "close_approach_date_full": "2010-May-06 01:21",
            "epoch_date_close_approach": 1273108860000,
            "relative_velocity": {
                "kilometers_per_second": "26.6649892092",
                "kilometers_per_hour": "95993.9611532629",
                "miles_per_hour": "59646.9143621483"
            },
            "miss_distance": {
                "astronomical": "0.0218092429",
                "lunar": "8.4837954881",
                "kilometers": "3262616.284152623",
                "miles": "2027295.7520192774"
            },
            "orbiting_body": "Earth"
        }
    ],
    "orbital_data": {
        "orbit_id": "10",
        "orbit_determination_date": "2019-04-23 07:24:10",
        "first_observation_date": "2010-05-10",
        "last_observation_date": "2010-05-19",
        "data_arc_in_days": 9,
        "observations_used": 30,
        "orbit_uncertainty": "8",
        "minimum_orbit_intersection": ".021732",
        "jupiter_tisserand_invariant": "3.226",
        "epoch_osculation": "2455328.5",
        "eccentricity": ".778980803057634",
        "semi_major_axis": "2.091740961641344",
        "inclination": "21.68162628595219",
        "ascending_node_longitude": "228.2419658231179",
        "orbital_period": "1104.994912516444",
        "perihelion_distance": ".4623149075534223",
        "perihelion_argument": "252.7059205468155",
        "aphelion_distance": "3.721167015729265",
        "perihelion_time": "2455275.953496349744",
        "mean_anomaly": "17.11930172693048",
        "mean_motion": ".3257933551749657",
        "equinox": "J2000",
        "orbit_class": {
            "orbit_class_type": "APO",
            "orbit_class_description": "Near-Earth asteroid orbits which cross the Earth’s orbit similar to that of 1862 Apollo",
            "orbit_class_range": "a (semi-major axis) > 1.0 AU; q (perihelion) < 1.017 AU"
        }
    },
    "is_sentry_object": false
}